COSMOS 1933             
1 18958U 88020A   26055.86944419  .00003322  00000+0  16264-3 0  9993
2 18958  82.5100 263.5981 0002766 235.0665 125.0309 15.17852023 48287
SL-3 R/B                
1 19046U 88032B   26055.89389101  .00005622  00000+0  26436-3 0  9996
2 19046  97.5174  39.1942 0024135 279.6544  80.1964 15.19731472 50165
SL-16 R/B               
1 19120U 88039B   26055.80378403 -.00000008  00000+0  18974-4 0  9993
2 19120  71.0133  95.7976 0021993 353.5621   6.5218 14.19613709956555
COSMOS 1953             
1 19210U 88050A   26055.72791678  .00009203  00000+0  33251-3 0  9999
2 19210  82.5095 171.2758 0011725 165.2057 194.9528 15.28254756 35806
SL-8 R/B                
1 19257U 88053B   26055.52428703  .00000230  00000+0  83207-4 0  9995
2 19257  74.0480 136.7329 0021028 318.0854 144.5691 14.38907039974703
COSMOS 1975             
1 19573U 88093A   26055.23400848  .00007867  00000+0  28793-3 0  9999
2 19573  82.5204 131.1881 0010939 211.1961 148.8630 15.27827522 17351
SL-14 R/B               
1 19574U 88093B   26055.92528088  .00000478  00000+0  52144-4 0  9992
2 19574  82.5283  54.0284 0022329  81.1195 300.6357 14.85638537999148
SL-16 R/B               
1 19650U 88102B   26055.62554281 -.00000241  00000+0 -97375-4 0  9994
2 19650  71.0002 178.9825 0013196  21.5342 338.6334 14.16150948925049
INTERCOSMOS 24          
1 20261U 89080A   26055.85572519  .00000559  00000+0  16467-3 0  9991
2 20261  82.6043 112.7607 1187089 322.6372  29.7589 12.59535866665185
SL-14 R/B               
1 20262U 89080C   26055.75267466  .00000607  00000+0  18129-3 0  9994
2 20262  82.5968 181.4891 1230046 214.3191 137.2185 12.50474603658537
DELTA 1 R/B             
1 20323U 89089B   26055.86018729  .00000283  00000+0  78605-4 0  9995
2 20323  97.0714 265.3388 0069577 162.0290 198.3392 14.50650731893871
ARIANE 40 R/B           
1 20443U 90005H   26055.19322781  .00000233  00000+0  87525-4 0  9996
2 20443  98.3115 116.2549 0009107 241.5792 118.4479 14.39860434890864
