CCSDS_OMM_VERS = 2.0
CREATION_DATE  = 
ORIGINATOR     = 

OBJECT_NAME    = COSMOS 1933
OBJECT_ID      = 1988-020A
CENTER_NAME    = EARTH
REF_FRAME      = TEME
TIME_SYSTEM    = UTC
MEAN_ELEMENT_THEORY = SGP/SGP4

EPOCH          = 2026-02-24T20:51:59.978016
MEAN_MOTION    = 15.17852023
ECCENTRICITY   = .0002766
INCLINATION    = 82.5100
RA_OF_ASC_NODE = 263.5981
ARG_OF_PERICENTER = 235.0665
MEAN_ANOMALY   = 125.0309

EPHEMERIS_TYPE = 0
CLASSIFICATION_TYPE = U
NORAD_CAT_ID   = 18958
ELEMENT_SET_NO = 999
REV_AT_EPOCH   = 4828
BSTAR          = .1626413E-3
MEAN_MOTION_DOT = .3322E-4
MEAN_MOTION_DDOT = 0

CCSDS_OMM_VERS = 2.0
CREATION_DATE  = 
ORIGINATOR     = 

OBJECT_NAME    = SL-3 R/B
OBJECT_ID      = 1988-032B
CENTER_NAME    = EARTH
REF_FRAME      = TEME
TIME_SYSTEM    = UTC
MEAN_ELEMENT_THEORY = SGP/SGP4

EPOCH          = 2026-02-24T21:27:12.183264
MEAN_MOTION    = 15.19731472
ECCENTRICITY   = .0024135
INCLINATION    = 97.5174
RA_OF_ASC_NODE = 39.1942
ARG_OF_PERICENTER = 279.6544
MEAN_ANOMALY   = 80.1964

EPHEMERIS_TYPE = 0
CLASSIFICATION_TYPE = U
NORAD_CAT_ID   = 19046
ELEMENT_SET_NO = 999
REV_AT_EPOCH   = 5016
BSTAR          = .26435656E-3
MEAN_MOTION_DOT = .5622E-4
MEAN_MOTION_DDOT = 0

CCSDS_OMM_VERS = 2.0
CREATION_DATE  = 
ORIGINATOR     = 

OBJECT_NAME    = SL-16 R/B
OBJECT_ID      = 1988-039B
CENTER_NAME    = EARTH
REF_FRAME      = TEME
TIME_SYSTEM    = UTC
MEAN_ELEMENT_THEORY = SGP/SGP4

EPOCH          = 2026-02-24T19:17:26.940192
MEAN_MOTION    = 14.19613709
ECCENTRICITY   = .00219935
INCLINATION    = 71.0133
RA_OF_ASC_NODE = 95.7976
ARG_OF_PERICENTER = 353.5621
MEAN_ANOMALY   = 6.5218

EPHEMERIS_TYPE = 0
CLASSIFICATION_TYPE = U
NORAD_CAT_ID   = 19120
ELEMENT_SET_NO = 999
REV_AT_EPOCH   = 95655
BSTAR          = .18974073E-4
MEAN_MOTION_DOT = -.8E-7
MEAN_MOTION_DDOT = 0

CCSDS_OMM_VERS = 2.0
CREATION_DATE  = 
ORIGINATOR     = 

OBJECT_NAME    = COSMOS 1953
OBJECT_ID      = 1988-050A
CENTER_NAME    = EARTH
REF_FRAME      = TEME
TIME_SYSTEM    = UTC
MEAN_ELEMENT_THEORY = SGP/SGP4

EPOCH          = 2026-02-24T17:28:12.009792
MEAN_MOTION    = 15.28254756
ECCENTRICITY   = .0011725
INCLINATION    = 82.5095
RA_OF_ASC_NODE = 171.2758
ARG_OF_PERICENTER = 165.2057
MEAN_ANOMALY   = 194.9528

EPHEMERIS_TYPE = 0
CLASSIFICATION_TYPE = U
NORAD_CAT_ID   = 19210
ELEMENT_SET_NO = 999
REV_AT_EPOCH   = 3580
BSTAR          = .33251255E-3
MEAN_MOTION_DOT = .9203E-4
MEAN_MOTION_DDOT = 0

CCSDS_OMM_VERS = 2.0
CREATION_DATE  = 
ORIGINATOR     = 

OBJECT_NAME    = SL-8 R/B
OBJECT_ID      = 1988-053B
CENTER_NAME    = EARTH
REF_FRAME      = TEME
TIME_SYSTEM    = UTC
MEAN_ELEMENT_THEORY = SGP/SGP4

EPOCH          = 2026-02-24T12:34:58.399392
MEAN_MOTION    = 14.38907039
ECCENTRICITY   = .00210282
INCLINATION    = 74.0480
RA_OF_ASC_NODE = 136.7329
ARG_OF_PERICENTER = 318.0854
MEAN_ANOMALY   = 144.5691

EPHEMERIS_TYPE = 0
CLASSIFICATION_TYPE = U
NORAD_CAT_ID   = 19257
ELEMENT_SET_NO = 999
REV_AT_EPOCH   = 97470
BSTAR          = .83206738E-4
MEAN_MOTION_DOT = .23E-5
MEAN_MOTION_DDOT = 0

CCSDS_OMM_VERS = 2.0
CREATION_DATE  = 
ORIGINATOR     = 

OBJECT_NAME    = COSMOS 1975
OBJECT_ID      = 1988-093A
CENTER_NAME    = EARTH
REF_FRAME      = TEME
TIME_SYSTEM    = UTC
MEAN_ELEMENT_THEORY = SGP/SGP4

EPOCH          = 2026-02-24T05:36:58.332672
MEAN_MOTION    = 15.27827522
ECCENTRICITY   = .0010939
INCLINATION    = 82.5204
RA_OF_ASC_NODE = 131.1881
ARG_OF_PERICENTER = 211.1961
MEAN_ANOMALY   = 148.8630

EPHEMERIS_TYPE = 0
CLASSIFICATION_TYPE = U
NORAD_CAT_ID   = 19573
ELEMENT_SET_NO = 999
REV_AT_EPOCH   = 1735
BSTAR          = .28793E-3
MEAN_MOTION_DOT = .7867E-4
MEAN_MOTION_DDOT = 0

CCSDS_OMM_VERS = 2.0
CREATION_DATE  = 
ORIGINATOR     = 

OBJECT_NAME    = SL-14 R/B
OBJECT_ID      = 1988-093B
CENTER_NAME    = EARTH
REF_FRAME      = TEME
TIME_SYSTEM    = UTC
MEAN_ELEMENT_THEORY = SGP/SGP4

EPOCH          = 2026-02-24T22:12:24.268032
MEAN_MOTION    = 14.85638537
ECCENTRICITY   = .00223291
INCLINATION    = 82.5283
RA_OF_ASC_NODE = 54.0284
ARG_OF_PERICENTER = 81.1195
MEAN_ANOMALY   = 300.6357

EPHEMERIS_TYPE = 0
CLASSIFICATION_TYPE = U
NORAD_CAT_ID   = 19574
ELEMENT_SET_NO = 999
REV_AT_EPOCH   = 99914
BSTAR          = .52143614E-4
MEAN_MOTION_DOT = .478E-5
MEAN_MOTION_DDOT = 0

CCSDS_OMM_VERS = 2.0
CREATION_DATE  = 
ORIGINATOR     = 

OBJECT_NAME    = SL-16 R/B
OBJECT_ID      = 1988-102B
CENTER_NAME    = EARTH
REF_FRAME      = TEME
TIME_SYSTEM    = UTC
MEAN_ELEMENT_THEORY = SGP/SGP4

EPOCH          = 2026-02-24T15:00:46.898784
MEAN_MOTION    = 14.16150948
ECCENTRICITY   = .0013196
INCLINATION    = 71.0002
RA_OF_ASC_NODE = 178.9825
ARG_OF_PERICENTER = 21.5342
MEAN_ANOMALY   = 338.6334

EPHEMERIS_TYPE = 0
CLASSIFICATION_TYPE = U
NORAD_CAT_ID   = 19650
ELEMENT_SET_NO = 999
REV_AT_EPOCH   = 92504
BSTAR          = -.97375E-4
MEAN_MOTION_DOT = -.241E-5
MEAN_MOTION_DDOT = 0

CCSDS_OMM_VERS = 2.0
CREATION_DATE  = 
ORIGINATOR     = 

OBJECT_NAME    = INTERCOSMOS 24
OBJECT_ID      = 1989-080A
CENTER_NAME    = EARTH
REF_FRAME      = TEME
TIME_SYSTEM    = UTC
MEAN_ELEMENT_THEORY = SGP/SGP4

EPOCH          = 2026-02-24T20:32:14.656416
MEAN_MOTION    = 12.59535866
ECCENTRICITY   = .11870892
INCLINATION    = 82.6043
RA_OF_ASC_NODE = 112.7607
ARG_OF_PERICENTER = 322.6372
MEAN_ANOMALY   = 29.7589

EPHEMERIS_TYPE = 0
CLASSIFICATION_TYPE = U
NORAD_CAT_ID   = 20261
ELEMENT_SET_NO = 999
REV_AT_EPOCH   = 66518
BSTAR          = .16466822E-3
MEAN_MOTION_DOT = .559E-5
MEAN_MOTION_DDOT = 0

CCSDS_OMM_VERS = 2.0
CREATION_DATE  = 
ORIGINATOR     = 

OBJECT_NAME    = SL-14 R/B
OBJECT_ID      = 1989-080C
CENTER_NAME    = EARTH
REF_FRAME      = TEME
TIME_SYSTEM    = UTC
MEAN_ELEMENT_THEORY = SGP/SGP4

EPOCH          = 2026-02-24T18:03:51.090624
MEAN_MOTION    = 12.50474603
ECCENTRICITY   = .12300469
INCLINATION    = 82.5968
RA_OF_ASC_NODE = 181.4891
ARG_OF_PERICENTER = 214.3191
MEAN_ANOMALY   = 137.2185

EPHEMERIS_TYPE = 0
CLASSIFICATION_TYPE = U
NORAD_CAT_ID   = 20262
ELEMENT_SET_NO = 999
REV_AT_EPOCH   = 65853
BSTAR          = .18128782E-3
MEAN_MOTION_DOT = .607E-5
MEAN_MOTION_DDOT = 0

CCSDS_OMM_VERS = 2.0
CREATION_DATE  = 
ORIGINATOR     = 

OBJECT_NAME    = DELTA 1 R/B
OBJECT_ID      = 1989-089B
CENTER_NAME    = EARTH
REF_FRAME      = TEME
TIME_SYSTEM    = UTC
MEAN_ELEMENT_THEORY = SGP/SGP4

EPOCH          = 2026-02-24T20:38:40.181856
MEAN_MOTION    = 14.50650731
ECCENTRICITY   = .00695774
INCLINATION    = 97.0714
RA_OF_ASC_NODE = 265.3388
ARG_OF_PERICENTER = 162.0290
MEAN_ANOMALY   = 198.3392

EPHEMERIS_TYPE = 0
CLASSIFICATION_TYPE = U
NORAD_CAT_ID   = 20323
ELEMENT_SET_NO = 999
REV_AT_EPOCH   = 89387
BSTAR          = .78604621E-4
MEAN_MOTION_DOT = .283E-5
MEAN_MOTION_DDOT = 0

CCSDS_OMM_VERS = 2.0
CREATION_DATE  = 
ORIGINATOR     = 

OBJECT_NAME    = ARIANE 40 R/B
OBJECT_ID      = 1990-005H
CENTER_NAME    = EARTH
REF_FRAME      = TEME
TIME_SYSTEM    = UTC
MEAN_ELEMENT_THEORY = SGP/SGP4

EPOCH          = 2026-02-24T04:38:14.882784
MEAN_MOTION    = 14.39860434
ECCENTRICITY   = .00091071
INCLINATION    = 98.3115
RA_OF_ASC_NODE = 116.2549
ARG_OF_PERICENTER = 241.5792
MEAN_ANOMALY   = 118.4479

EPHEMERIS_TYPE = 0
CLASSIFICATION_TYPE = U
NORAD_CAT_ID   = 20443
ELEMENT_SET_NO = 999
REV_AT_EPOCH   = 89086
BSTAR          = .87524992E-4
MEAN_MOTION_DOT = .233E-5
MEAN_MOTION_DDOT = 0

